{"spkid": "20712200", "covariance": {"epoch": "2457520.5", "labels": ["e", "q", "tp", "node", "peri", "i"], "data": [["8.963263483801388E-15", "-1.078447567746239E-14", "-9.016407011752957E-14", "1.467764686463887E-13", "9.555990883881506E-13", "-5.456211394452785E-13"], ["-1.078447567746239E-14", "1.298292984197291E-14", "1.15921005669036E-13", "-1.769980863898207E-13", "-1.150226831681794E-12", "6.564469793517657E-13"], ["-9.016407011752957E-14", "1.15921005669036E-13", "1.302780462415874E-11", "-6.237660811003544E-12", "-2.712521812864447E-13", "5.799967621941667E-12"], ["1.467764686463887E-13", "-1.769980863898207E-13", "-6.237660811003544E-12", "6.875783974305747E-12", "5.836998619327079E-12", "-1.008211627029337E-11"], ["9.555990883881506E-13", "-1.150226831681794E-12", "-2.712521812864447E-13", "5.836998619327079E-12", "1.23883895317687E-10", "-5.652684056451509E-11"], ["-5.456211394452785E-13", "6.564469793517657E-13", "5.799967621941667E-12", "-1.008211627029337E-11", "-5.652684056451509E-11", "4.205999017547945E-11"]], "elements": [{"name": "e", "sigma": 9.46745133803253e-08, "title": "eccentricity", "value": ".4226780906577415", "units": null, "label": "e"}, {"sigma": 1.13942660325152e-07, "name": "q", "units": "au", "value": ".6961580300914401", "title": "perihelion distance", "label": "q"}, {"label": "tp", "units": "TDB", "title": "time of perihelion passage", "value": "2457492.515268803913", "sigma": 3.60940502356811e-06, "name": "tp"}, {"label": "node", "name": "om", "sigma": 2.622171614198e-06, "title": "longitude of the ascending node", "value": "28.85622670094039", "units": "deg"}, {"label": "peri", "value": "89.5871828763743", "title": "argument of perihelion", "units": "deg", "sigma": 1.11303142506259e-05, "name": "w"}, {"label": "i", "name": "i", "sigma": 6.48536738939896e-06, "title": "inclination", "value": "24.21433392411203", "units": "deg"}]}, "elements": [{"name": "e", "sigma": "9.4689E-8", "units": null, "value": ".4226740000389242", "title": "eccentricity", "label": "e"}, {"units": "au", "value": "1.205637703874613", "title": "semi-major axis", "name": "a", "sigma": "4.3606E-9", "label": "a"}, {"label": "q", "name": "q", "sigma": "1.1386E-7", "units": "au", "value": ".6960459929801862", "title": "perihelion distance"}, {"label": "i", "units": "deg", "value": "24.21363569225931", "title": "inclination; angle with respect to x-y ecliptic plane", "name": "i", "sigma": "6.4842E-6"}, {"label": "node", "name": "om", "sigma": "2.611E-6", "title": "longitude of the ascending node", "value": "28.79579137808142", "units": "deg"}, {"sigma": "1.1162E-5", "name": "w", "units": "deg", "title": "argument of perihelion", "value": "89.65494033997012", "label": "peri"}, {"units": "deg", "title": "mean anomaly", "value": "240.5300252895649", "sigma": "1.7435E-5", "name": "ma", "label": "M"}, {"label": "tp", "name": "tp", "sigma": "2.4283E-5", "title": "time of perihelion passage", "value": "2461360.964855609523", "units": "TDB"}, {"label": "period", "sigma": "2.6233E-6", "name": "per", "title": "sidereal orbital period", "value": "483.5302607156447", "units": "d"}, {"label": "n", "title": "mean motion", "value": ".7445242402557911", "units": "deg/d", "name": "n", "sigma": "4.0392E-9"}, {"title": "aphelion distance", "value": "1.715229414769039", "units": "au", "sigma": "6.2037E-9", "name": "ad", "label": "Q"}], "epoch": "2461200.5"}